OBJECT_NAME,OBJECT_ID,EPOCH,MEAN_MOTION,ECCENTRICITY,INCLINATION,RA_OF_ASC_NODE,ARG_OF_PERICENTER,MEAN_ANOMALY,EPHEMERIS_TYPE,CLASSIFICATION_TYPE,NORAD_CAT_ID,ELEMENT_SET_NO,REV_AT_EPOCH,BSTAR,MEAN_MOTION_DOT,MEAN_MOTION_DDOT
COSMOS 2251 DEB,1993-036BWP,2024-12-28T18:40:31.017792,14.55339585,0.0021993,74.0375,17.6368,257.4475,102.4228,0,U,40810,999,56600,1.86E-03,8.05E-05,0
COSMOS 2251 DEB,1993-036BWT,2024-12-29T18:07:15.114720,14.50146144,0.0042084,74.0463,12.1352,222.3239,137.4672,0,U,46271,999,79595,8.25E-04,3.22E-05,0
COSMOS 2251 DEB,1993-036BWU,2024-12-23T12:58:50.239200,14.43524057,0.0114585,73.9171,304.4373,300.5041,58.4841,0,U,46430,999,74556,5.12E-03,1.88E-04,0
COSMOS 2251 DEB,1993-036BWW,2024-12-29T02:32:12.971616,13.35972191,0.0474236,73.8733,300.3373,116.9675,260.5633,0,U,46432,999,62309,9.65E-04,9.22E-06,0
COSMOS 2251 DEB,1993-036BWZ,2024-12-30T22:16:31.796256,14.38617883,0.0030564,74.0586,67.8293,295.7831,238.022,0,U,47045,999,58307,2.49E-04,7.39E-06,0
COSMOS 2251 DEB,1993-036BXC,2024-12-31T10:22:48.557280,14.46207385,0.0148033,73.9806,251.4832,160.0963,12.9098,0,U,47048,999,54672,2.95E-03,1.21E-04,0
COSMOS 2251 DEB,1993-036BXF,2024-12-26T09:05:03.221664,13.6554822,0.0351523,74.1034,37.0653,233.0081,136.9421,0,U,47051,999,64135,3.30E-03,4.09E-05,0
COSMOS 2251 DEB,1993-036BXG,2024-12-30T11:19:15.222144,14.34678912,0.0058805,74.0489,256.4544,57.2217,115.3,0,U,47052,999,56807,8.38E-04,2.39E-05,0
COSMOS 2251 DEB,1993-036BXH,2024-12-31T12:37:16.298112,13.58334371,0.0385394,74.0582,93.854,343.2275,26.5257,0,U,47053,999,24185,2.45E-03,2.87E-05,0
COSMOS 2251 DEB,1993-036BXP,2024-12-31T20:14:39.709824,14.84797296,0.0026387,73.9854,217.6564,109.6072,262.6377,0,U,47059,999,3128,4.50E-03,3.86E-04,0
COSMOS 2251 DEB,1993-036BXR,2024-12-31T18:26:16.052640,14.87906004,0.0038352,74.0044,180.4793,135.659,235.7953,0,U,47061,999,59180,5.83E-03,5.45E-04,0
COSMOS 2251 DEB,1993-036BXS,2024-12-30T13:26:10.168224,13.70503452,0.0324707,74.0824,290.0596,135.9816,35.4129,0,U,47062,999,50843,2.91E-03,3.72E-05,0
COSMOS 2251 DEB,1993-036BXY,2024-12-31T01:50:05.078688,14.49334163,0.0020974,74.0258,136.4019,310.4997,49.4335,0,U,47068,999,67488,3.21E-03,1.23E-04,0
COSMOS 2251 DEB,1993-036BYA,2024-12-31T06:51:51.316704,15.04133573,0.0007465,74.0501,5.6841,68.3692,303.3647,0,U,47070,999,58952,9.03E-03,1.28E-03,0
COSMOS 2251 DEB,1993-036BYD,2024-12-27T12:58:58.341792,14.03832975,0.016424,74.0844,90.7301,214.6481,144.387,0,U,47073,999,55445,1.81E-03,3.19E-05,0
COSMOS 2251 DEB,1993-036BYE,2024-12-17T11:46:21.447264,14.30354438,0.0151413,74.0924,245.1267,6.4135,167.7474,0,U,47074,999,3178,2.94E-03,8.65E-05,0
COSMOS 2251 DEB,1993-036BYP,2024-12-30T08:58:03.885312,14.39251741,0.0020053,74.0357,224.0475,32.8004,327.4391,0,U,53093,999,12723,2.11E-03,6.55E-05,0
